COMMENT,ORIGINATOR,NORAD_CAT_ID,OBJECT_NAME,OBJECT_TYPE,CLASSIFICATION_TYPE,INTLDES,EPOCH,EPOCH_MICROSECONDS,MEAN_MOTION,ECCENTRICITY,INCLINATION,RA_OF_ASC_NODE,ARG_OF_PERICENTER,MEAN_ANOMALY,EPHEMERIS_TYPE,ELEMENT_SET_NO,REV_AT_EPOCH,BSTAR,MEAN_MOTION_DOT,MEAN_MOTION_DDOT,FILE,TLE_LINE0,TLE_LINE1,TLE_LINE2,OBJECT_ID,OBJECT_NUMBER,SEMIMAJOR_AXIS,PERIOD,APOGEE,PERIGEE,DECAYED
"GENERATED VIA SPACETRACK.ORG API","18 SPCS","55095","SPACEBEE-162","PAYLOAD","U","23001CQ","2024-03-06 02:35:29","964480","15.34951855","0.0011688","97.4363","130.722","154.8328","205.3487","0","999","6520","0.0012858","0.000438","0","4211361","0 SPACEBEE-162","1 55095U 23001CQ  24066.10798570  .00043800  00000-0  12858-2 0  9996","2 55095  97.4363 130.7220 0011688 154.8328 205.3487 15.34951855 65206","2023-001CQ","55095","6839.201","93.814","469.059","453.072","0"
"GENERATED VIA SPACETRACK.ORG API","18 SPCS","55095","SPACEBEE-162","PAYLOAD","U","23001CQ","2024-03-07 03:37:27","247584","15.35036425","0.0011792","97.4364","131.7735","151.8932","208.295","0","999","6536","0.0011406","0.00038926","0","4212555","0 SPACEBEE-162","1 55095U 23001CQ  24067.15100981  .00038926  00000-0  11406-2 0  9996","2 55095  97.4364 131.7735 0011792 151.8932 208.2950 15.35036425 65365","2023-001CQ","55095","6838.949","93.809","468.879","452.750","0"
"GENERATED VIA SPACETRACK.ORG API","18 SPCS","55095","SPACEBEE-162","PAYLOAD","U","23001CQ","2024-03-07 03:37:27","247584","15.35036425","0.0011792","97.4364","131.7735","151.8932","208.295","0","999","6536","0.0011406","0.00038926","0","4212721","0 SPACEBEE-162","1 55095U 23001CQ  24067.15100981  .00038926  00000-0  11406-2 0  9996","2 55095  97.4364 131.7735 0011792 151.8932 208.2950 15.35036425 65365","2023-001CQ","55095","6838.949","93.809","468.879","452.750","0"
"GENERATED VIA SPACETRACK.ORG API","18 SPCS","55095","SPACEBEE-162","PAYLOAD","U","23001CQ","2024-03-08 03:05:27","761856","15.35119481","0.001152","97.4363","132.7602","148.0974","212.0969","0","999","6551","0.0012859","0.00044036","0","4214683","0 SPACEBEE-162","1 55095U 23001CQ  24068.12879354  .00044036  00000-0  12859-2 0  9993","2 55095  97.4363 132.7602 0011520 148.0974 212.0969 15.35119481 65515","2023-001CQ","55095","6838.703","93.804","468.446","452.689","0"
"GENERATED VIA SPACETRACK.ORG API","18 SPCS","55095","SPACEBEE-162","PAYLOAD","U","23001CQ","2024-03-08 03:05:27","761856","15.35119481","0.001152","97.4363","132.7602","148.0974","212.0969","0","999","6551","0.0012859","0.00044036","0","4215080","0 SPACEBEE-162","1 55095U 23001CQ  24068.12879354  .00044036  00000-0  12859-2 0  9993","2 55095  97.4363 132.7602 0011520 148.0974 212.0969 15.35119481 65515","2023-001CQ","55095","6838.703","93.804","468.446","452.689","0"
"GENERATED VIA SPACETRACK.ORG API","18 SPCS","55095","SPACEBEE-162","PAYLOAD","U","23001CQ","2024-03-09 02:33:23","658048","15.35198829","0.0011576","97.4357","133.7465","144.6962","215.505","0","999","6566","0.0011293","0.00038735","0","4216444","0 SPACEBEE-162","1 55095U 23001CQ  24069.10652382  .00038735  00000-0  11293-2 0  9992","2 55095  97.4357 133.7465 0011576 144.6962 215.5050 15.35198829 65664","2023-001CQ","55095","6838.467","93.799","468.248","452.416","0"
"GENERATED VIA SPACETRACK.ORG API","18 SPCS","55095","SPACEBEE-162","PAYLOAD","U","23001CQ","2024-03-09 15:04:15","551328","15.35245153","0.0011604","97.4356","134.2722","142.9425","217.2621","0","999","6574","0.0011393","0.00039139","0","4216941","0 SPACEBEE-162","1 55095U 23001CQ  24069.62795777  .00039139  00000-0  11393-2 0  9995","2 55095  97.4356 134.2722 0011604 142.9425 217.2621 15.35245153 65747","2023-001CQ","55095","6838.329","93.796","468.130","452.259","0"
"GENERATED VIA SPACETRACK.ORG API","18 SPCS","55095","SPACEBEE-162","PAYLOAD","U","23001CQ","2024-03-09 15:04:15","551328","15.35245153","0.0011604","97.4356","134.2722","142.9425","217.2621","0","999","6574","0.0011393","0.00039139","0","4216947","0 SPACEBEE-162","1 55095U 23001CQ  24069.62795777  .00039139  00000-0  11393-2 0  9995","2 55095  97.4356 134.2722 0011604 142.9425 217.2621 15.35245153 65747","2023-001CQ","55095","6838.329","93.796","468.130","452.259","0"
"GENERATED VIA SPACETRACK.ORG API","18 SPCS","55095","SPACEBEE-162","PAYLOAD","U","23001CQ","2024-03-10 14:32:04","595136","15.35322083","0.0011623","97.4348","135.2586","140.0129","220.1973","0","999","6589","0.0010797","0.00037169","0","4218257","0 SPACEBEE-162","1 55095U 23001CQ  24070.60560874  .00037169  00000-0  10797-2 0  9991","2 55095  97.4348 135.2586 0011623 140.0129 220.1973 15.35322083 65895","2023-001CQ","55095","6838.101","93.791","467.914","452.018","0"
"GENERATED VIA SPACETRACK.ORG API","18 SPCS","55095","SPACEBEE-162","PAYLOAD","U","23001CQ","2024-03-11 03:02:52","987488","15.35363987","0.0011604","97.4347","135.7846","138.4784","221.7343","0","999","6597","0.0011063","0.00038142","0","4219410","0 SPACEBEE-162","1 55095U 23001CQ  24071.12700217  .00038142  00000-0  11063-2 0  9995","2 55095  97.4347 135.7846 0011604 138.4784 221.7343 15.35363987 65970","2023-001CQ","55095","6837.977","93.789","467.776","451.907","0"
"GENERATED VIA SPACETRACK.ORG API","18 SPCS","55095","SPACEBEE-162","PAYLOAD","U","23001CQ","2024-03-11 03:02:52","987488","15.35363987","0.0011604","97.4347","135.7846","138.4784","221.7343","0","999","6597","0.0011063","0.00038142","0","4220034","0 SPACEBEE-162","1 55095U 23001CQ  24071.12700217  .00038142  00000-0  11063-2 0  9995","2 55095  97.4347 135.7846 0011604 138.4784 221.7343 15.35363987 65970","2023-001CQ","55095","6837.977","93.789","467.776","451.907","0"
"GENERATED VIA SPACETRACK.ORG API","18 SPCS","55095","SPACEBEE-162","PAYLOAD","U","23001CQ","2024-03-12 04:04:26","214240","15.35443695","0.0011683","97.434","136.8366","135.0019","225.2173","0","999","6613","0.0010345","0.00035742","0","4221034","0 SPACEBEE-162","1 55095U 23001CQ  24072.16974785  .00035742  00000-0  10345-2 0  9998","2 55095  97.4340 136.8366 0011683 135.0019 225.2173 15.35443695 66137","2023-001CQ","55095","6837.740","93.784","467.593","451.616","0"
"GENERATED VIA SPACETRACK.ORG API","18 SPCS","55095","SPACEBEE-162","PAYLOAD","U","23001CQ","2024-03-12 04:04:26","214240","15.35443695","0.0011683","97.434","136.8366","135.0019","225.2173","0","999","6613","0.0010345","0.00035742","0","4222103","0 SPACEBEE-162","1 55095U 23001CQ  24072.16974785  .00035742  00000-0  10345-2 0  9998","2 55095  97.4340 136.8366 0011683 135.0019 225.2173 15.35443695 66137","2023-001CQ","55095","6837.740","93.784","467.593","451.616","0"
"GENERATED VIA SPACETRACK.ORG API","18 SPCS","55095","SPACEBEE-162","PAYLOAD","U","23001CQ","2024-03-13 14:28:57","9504","15.35552754","0.0011746","97.4334","138.2832","130.8156","229.4108","0","999","6635","0.0011488","0.00039861","0","4223455","0 SPACEBEE-162","1 55095U 23001CQ  24073.60343761  .00039861  00000-0  11488-2 0  9997","2 55095  97.4334 138.2832 0011746 130.8156 229.4108 15.35552754 66354","2023-001CQ","55095","6837.416","93.777","467.312","451.250","0"
"GENERATED VIA SPACETRACK.ORG API","18 SPCS","55095","SPACEBEE-162","PAYLOAD","U","23001CQ","2024-03-13 14:28:57","9504","15.35552754","0.0011746","97.4334","138.2832","130.8156","229.4108","0","999","6635","0.0011488","0.00039861","0","4223905","0 SPACEBEE-162","1 55095U 23001CQ  24073.60343761  .00039861  00000-0  11488-2 0  9997","2 55095  97.4334 138.2832 0011746 130.8156 229.4108 15.35552754 66354","2023-001CQ","55095","6837.416","93.777","467.312","451.250","0"
"GENERATED VIA SPACETRACK.ORG API","18 SPCS","55095","SPACEBEE-162","PAYLOAD","U","23001CQ","2024-03-14 02:59:38","591808","15.35598024","0.0011714","97.4338","138.8095","129.3749","230.8534","0","999","6643","0.0012047","0.00041875","0","4225152","0 SPACEBEE-162","1 55095U 23001CQ  24074.12475222  .00041875  00000-0  12047-2 0  9993","2 55095  97.4338 138.8095 0011714 129.3749 230.8534 15.35598024 66439","2023-001CQ","55095","6837.282","93.775","467.156","451.138","0"
"GENERATED VIA SPACETRACK.ORG API","18 SPCS","55095","SPACEBEE-162","PAYLOAD","U","23001CQ","2024-03-14 10:48:48","967200","15.35623997","0.0011676","97.4339","139.1384","128.0851","232.1448","0","999","6648","0.0011684","0.00040638","0","4225645","0 SPACEBEE-162","1 55095U 23001CQ  24074.45056675  .00040638  00000-0  11684-2 0  9998","2 55095  97.4339 139.1384 0011676 128.0851 232.1448 15.35623997 66484","2023-001CQ","55095","6837.205","93.773","467.053","451.087","0"
"GENERATED VIA SPACETRACK.ORG API","18 SPCS","55095","SPACEBEE-162","PAYLOAD","U","23001CQ","2024-03-15 04:00:57","999744","15.35685989","0.0011613","97.4335","139.8616","125.5498","234.683","0","999","6659","0.001229","0.00042846","0","4226117","0 SPACEBEE-162","1 55095U 23001CQ  24075.16733796  .00042846  00000-0  12290-2 0  9990","2 55095  97.4335 139.8616 0011613 125.5498 234.6830 15.35685989 66598","2023-001CQ","55095","6837.021","93.769","466.826","450.946","0"
"GENERATED VIA SPACETRACK.ORG API","18 SPCS","55095","SPACEBEE-162","PAYLOAD","U","23001CQ","2024-03-15 04:00:57","999744","15.35685989","0.0011613","97.4335","139.8616","125.5498","234.683","0","999","6659","0.001229","0.00042846","0","4227250","0 SPACEBEE-162","1 55095U 23001CQ  24075.16733796  .00042846  00000-0  12290-2 0  9990","2 55095  97.4335 139.8616 0011613 125.5498 234.6830 15.35685989 66598","2023-001CQ","55095","6837.021","93.769","466.826","450.946","0"
"GENERATED VIA SPACETRACK.ORG API","18 SPCS","55095","SPACEBEE-162","PAYLOAD","U","23001CQ","2024-03-16 09:43:40","872288","15.35776927","0.0011617","97.4333","141.1114","121.7612","238.4765","0","999","6678","0.00098203","0.00034281","0","4228456","0 SPACEBEE-162","1 55095U 23001CQ  24076.40533417  .00034281  00000-0  98203-3 0  9999","2 55095  97.4333 141.1114 0011617 121.7612 238.4765 15.35776927 66788","2023-001CQ","55095","6836.751","93.764","466.558","450.674","0"
